{
  "norad_id": 55934,
  "name": "STARLINK-5927",
  "history": [
    {
      "epoch": "2026-03-28T14:21:01.235808Z",
      "apogee_km": 580.1867293963151,
      "perigee_km": 573.4418176512518,
      "latitude_deg": 4.6711240634672575e-05,
      "longitude_deg": -164.5403157559713,
      "height_km": 580.7026831631346,
      "semi_major_axis_km": 6954.951273523783,
      "eccentricity": 0.0004849,
      "inclination_deg": 69.9992,
      "raan_deg": 236.7309,
      "arg_perigee_deg": 115.9077,
      "mean_anomaly_deg": 244.2582,
      "mean_motion_rev_day": 14.9679259
    }
  ]
}